UNKNOWN                 
1 81317U          25319.07426897  .00000478  00000+0  90665-3 0  9990
2 81317  67.1367 237.5392 0207452  53.7937 323.6414 13.37988679584930
UNKNOWN                 
1 81323U          25316.70369256  .00023564  00000+0  31390-2 0  9999
2 81323  65.7490 112.8653 0346176 329.0853  29.0259 14.45715935108711
UNKNOWN                 
1 81329U          25318.92940294  .00003591  00000+0  13243-2 0  9993
2 81329  65.8200 193.7714 0829710  42.6538 323.5955 13.22022281574408
UNKNOWN                 
1 81341U          25307.33032214 -.00004894  00000+0 -12730-1 0  9992
2 81341  99.4815 255.3761 0353920 243.4512 112.9910 12.96505407518317
UNKNOWN                 
1 81343U          25321.68210748  .00008537  00000+0  62477-3 0  9999
2 81343  85.8758 212.7364 0009205  11.5182 348.6260 15.03422624450558
UNKNOWN                 
1 81359U          25317.88258204  .00001333  00000+0  13164-2 0  9997
2 81359  66.7969 121.0587 0114215 343.2094  16.5209 13.78772935601501
UNKNOWN                 
1 81366U          25321.73226490  .00001975  00000+0  72952-3 0  9999
2 81366  65.8801 131.1710 0709889  93.8817 274.3628 13.45080989 62596
UNKNOWN                 
1 81371U          25319.00617591  .00005423  00000+0  87849-3 0  9991
2 81371  98.8150  53.2084 0071566  91.1648 269.7756 14.70005974637767
UNKNOWN                 
1 81386U          25321.97496868  .00007959  00000+0  26420-2 0  9991
2 81386  71.0503  50.2535 0086175 125.9869 234.9296 14.35918421620686
UNKNOWN                 
1 81390U          25320.42453704 -.00000377  00000+0 -24687-2 0  9999
2 81390 103.1056 207.3939 0166708 192.5561 167.1315 12.35652683496845
UNKNOWN                 
1 81392U          25319.70794802  .00004892  00000+0  46181-2 0  9994
2 81392 100.3964 305.2154 0037849  97.5191  80.3726 13.81441699598443
UNKNOWN                 
1 81405U          25306.35264018  .00001634  00000+0  12620-2 0  9999
2 81405  99.4680 353.8711 0158545 331.9698  27.2987 13.88686156556194
