CCSDS_OMM_VERS = 2.0
CREATION_DATE  = 
ORIGINATOR     = 

OBJECT_NAME    = UNKNOWN
OBJECT_ID      = 
CENTER_NAME    = EARTH
REF_FRAME      = TEME
TIME_SYSTEM    = UTC
MEAN_ELEMENT_THEORY = SGP/SGP4

EPOCH          = 2025-11-15T01:46:56.839008
MEAN_MOTION    = 13.37988679
ECCENTRICITY   = .0207452
INCLINATION    = 67.1367
RA_OF_ASC_NODE = 237.5392
ARG_OF_PERICENTER = 53.7937
MEAN_ANOMALY   = 323.6414

EPHEMERIS_TYPE = 0
CLASSIFICATION_TYPE = U
NORAD_CAT_ID   = 81317
ELEMENT_SET_NO = 999
REV_AT_EPOCH   = 58493
BSTAR          = .90665E-3
MEAN_MOTION_DOT = .478E-5
MEAN_MOTION_DDOT = 0

CCSDS_OMM_VERS = 2.0
CREATION_DATE  = 
ORIGINATOR     = 

OBJECT_NAME    = UNKNOWN
OBJECT_ID      = 
CENTER_NAME    = EARTH
REF_FRAME      = TEME
TIME_SYSTEM    = UTC
MEAN_ELEMENT_THEORY = SGP/SGP4

EPOCH          = 2025-11-12T16:53:19.037184
MEAN_MOTION    = 14.45715935
ECCENTRICITY   = .0346176
INCLINATION    = 65.7490
RA_OF_ASC_NODE = 112.8653
ARG_OF_PERICENTER = 329.0853
MEAN_ANOMALY   = 29.0259

EPHEMERIS_TYPE = 0
CLASSIFICATION_TYPE = U
NORAD_CAT_ID   = 81323
ELEMENT_SET_NO = 999
REV_AT_EPOCH   = 10871
BSTAR          = .3139E-2
MEAN_MOTION_DOT = .23564E-3
MEAN_MOTION_DDOT = 0

CCSDS_OMM_VERS = 2.0
CREATION_DATE  = 
ORIGINATOR     = 

OBJECT_NAME    = UNKNOWN
OBJECT_ID      = 
CENTER_NAME    = EARTH
REF_FRAME      = TEME
TIME_SYSTEM    = UTC
MEAN_ELEMENT_THEORY = SGP/SGP4

EPOCH          = 2025-11-14T22:18:20.414016
MEAN_MOTION    = 13.22022281
ECCENTRICITY   = .082971
INCLINATION    = 65.8200
RA_OF_ASC_NODE = 193.7714
ARG_OF_PERICENTER = 42.6538
MEAN_ANOMALY   = 323.5955

EPHEMERIS_TYPE = 0
CLASSIFICATION_TYPE = U
NORAD_CAT_ID   = 81329
ELEMENT_SET_NO = 999
REV_AT_EPOCH   = 57440
BSTAR          = .13243E-2
MEAN_MOTION_DOT = .3591E-4
MEAN_MOTION_DDOT = 0

CCSDS_OMM_VERS = 2.0
CREATION_DATE  = 
ORIGINATOR     = 

OBJECT_NAME    = UNKNOWN
OBJECT_ID      = 
CENTER_NAME    = EARTH
REF_FRAME      = TEME
TIME_SYSTEM    = UTC
MEAN_ELEMENT_THEORY = SGP/SGP4

EPOCH          = 2025-11-03T07:55:39.832896
MEAN_MOTION    = 12.96505407
ECCENTRICITY   = .035392
INCLINATION    = 99.4815
RA_OF_ASC_NODE = 255.3761
ARG_OF_PERICENTER = 243.4512
MEAN_ANOMALY   = 112.9910

EPHEMERIS_TYPE = 0
CLASSIFICATION_TYPE = U
NORAD_CAT_ID   = 81341
ELEMENT_SET_NO = 999
REV_AT_EPOCH   = 51831
BSTAR          = -.1273E-1
MEAN_MOTION_DOT = -.4894E-4
MEAN_MOTION_DDOT = 0

CCSDS_OMM_VERS = 2.0
CREATION_DATE  = 
ORIGINATOR     = 

OBJECT_NAME    = UNKNOWN
OBJECT_ID      = 
CENTER_NAME    = EARTH
REF_FRAME      = TEME
TIME_SYSTEM    = UTC
MEAN_ELEMENT_THEORY = SGP/SGP4

EPOCH          = 2025-11-17T16:22:14.086272
MEAN_MOTION    = 15.03422624
ECCENTRICITY   = .0009205
INCLINATION    = 85.8758
RA_OF_ASC_NODE = 212.7364
ARG_OF_PERICENTER = 11.5182
MEAN_ANOMALY   = 348.6260

EPHEMERIS_TYPE = 0
CLASSIFICATION_TYPE = U
NORAD_CAT_ID   = 81343
ELEMENT_SET_NO = 999
REV_AT_EPOCH   = 45055
BSTAR          = .62477E-3
MEAN_MOTION_DOT = .8537E-4
MEAN_MOTION_DDOT = 0

CCSDS_OMM_VERS = 2.0
CREATION_DATE  = 
ORIGINATOR     = 

OBJECT_NAME    = UNKNOWN
OBJECT_ID      = 
CENTER_NAME    = EARTH
REF_FRAME      = TEME
TIME_SYSTEM    = UTC
MEAN_ELEMENT_THEORY = SGP/SGP4

EPOCH          = 2025-11-13T21:10:55.088256
MEAN_MOTION    = 13.78772935
ECCENTRICITY   = .0114215
INCLINATION    = 66.7969
RA_OF_ASC_NODE = 121.0587
ARG_OF_PERICENTER = 343.2094
MEAN_ANOMALY   = 16.5209

EPHEMERIS_TYPE = 0
CLASSIFICATION_TYPE = U
NORAD_CAT_ID   = 81359
ELEMENT_SET_NO = 999
REV_AT_EPOCH   = 60150
BSTAR          = .13164E-2
MEAN_MOTION_DOT = .1333E-4
MEAN_MOTION_DDOT = 0

CCSDS_OMM_VERS = 2.0
CREATION_DATE  = 
ORIGINATOR     = 

OBJECT_NAME    = UNKNOWN
OBJECT_ID      = 
CENTER_NAME    = EARTH
REF_FRAME      = TEME
TIME_SYSTEM    = UTC
MEAN_ELEMENT_THEORY = SGP/SGP4

EPOCH          = 2025-11-17T17:34:27.687360
MEAN_MOTION    = 13.45080989
ECCENTRICITY   = .0709889
INCLINATION    = 65.8801
RA_OF_ASC_NODE = 131.1710
ARG_OF_PERICENTER = 93.8817
MEAN_ANOMALY   = 274.3628

EPHEMERIS_TYPE = 0
CLASSIFICATION_TYPE = U
NORAD_CAT_ID   = 81366
ELEMENT_SET_NO = 999
REV_AT_EPOCH   = 6259
BSTAR          = .72952E-3
MEAN_MOTION_DOT = .1975E-4
MEAN_MOTION_DDOT = 0

CCSDS_OMM_VERS = 2.0
CREATION_DATE  = 
ORIGINATOR     = 

OBJECT_NAME    = UNKNOWN
OBJECT_ID      = 
CENTER_NAME    = EARTH
REF_FRAME      = TEME
TIME_SYSTEM    = UTC
MEAN_ELEMENT_THEORY = SGP/SGP4

EPOCH          = 2025-11-15T00:08:53.598624
MEAN_MOTION    = 14.70005974
ECCENTRICITY   = .0071566
INCLINATION    = 98.8150
RA_OF_ASC_NODE = 53.2084
ARG_OF_PERICENTER = 91.1648
MEAN_ANOMALY   = 269.7756

EPHEMERIS_TYPE = 0
CLASSIFICATION_TYPE = U
NORAD_CAT_ID   = 81371
ELEMENT_SET_NO = 999
REV_AT_EPOCH   = 63776
BSTAR          = .87849E-3
MEAN_MOTION_DOT = .5423E-4
MEAN_MOTION_DDOT = 0

CCSDS_OMM_VERS = 2.0
CREATION_DATE  = 
ORIGINATOR     = 

OBJECT_NAME    = UNKNOWN
OBJECT_ID      = 
CENTER_NAME    = EARTH
REF_FRAME      = TEME
TIME_SYSTEM    = UTC
MEAN_ELEMENT_THEORY = SGP/SGP4

EPOCH          = 2025-11-17T23:23:57.293952
MEAN_MOTION    = 14.35918421
ECCENTRICITY   = .0086175
INCLINATION    = 71.0503
RA_OF_ASC_NODE = 50.2535
ARG_OF_PERICENTER = 125.9869
MEAN_ANOMALY   = 234.9296

EPHEMERIS_TYPE = 0
CLASSIFICATION_TYPE = U
NORAD_CAT_ID   = 81386
ELEMENT_SET_NO = 999
REV_AT_EPOCH   = 62068
BSTAR          = .2642E-2
MEAN_MOTION_DOT = .7959E-4
MEAN_MOTION_DDOT = 0

CCSDS_OMM_VERS = 2.0
CREATION_DATE  = 
ORIGINATOR     = 

OBJECT_NAME    = UNKNOWN
OBJECT_ID      = 
CENTER_NAME    = EARTH
REF_FRAME      = TEME
TIME_SYSTEM    = UTC
MEAN_ELEMENT_THEORY = SGP/SGP4

EPOCH          = 2025-11-16T10:11:20.000256
MEAN_MOTION    = 12.35652683
ECCENTRICITY   = .0166708
INCLINATION    = 103.1056
RA_OF_ASC_NODE = 207.3939
ARG_OF_PERICENTER = 192.5561
MEAN_ANOMALY   = 167.1315

EPHEMERIS_TYPE = 0
CLASSIFICATION_TYPE = U
NORAD_CAT_ID   = 81390
ELEMENT_SET_NO = 999
REV_AT_EPOCH   = 49684
BSTAR          = -.24687E-2
MEAN_MOTION_DOT = -.377E-5
MEAN_MOTION_DDOT = 0

CCSDS_OMM_VERS = 2.0
CREATION_DATE  = 
ORIGINATOR     = 

OBJECT_NAME    = UNKNOWN
OBJECT_ID      = 
CENTER_NAME    = EARTH
REF_FRAME      = TEME
TIME_SYSTEM    = UTC
MEAN_ELEMENT_THEORY = SGP/SGP4

EPOCH          = 2025-11-15T16:59:26.708928
MEAN_MOTION    = 13.81441699
ECCENTRICITY   = .0037849
INCLINATION    = 100.3964
RA_OF_ASC_NODE = 305.2154
ARG_OF_PERICENTER = 97.5191
MEAN_ANOMALY   = 80.3726

EPHEMERIS_TYPE = 0
CLASSIFICATION_TYPE = U
NORAD_CAT_ID   = 81392
ELEMENT_SET_NO = 999
REV_AT_EPOCH   = 59844
BSTAR          = .46181E-2
MEAN_MOTION_DOT = .4892E-4
MEAN_MOTION_DDOT = 0

CCSDS_OMM_VERS = 2.0
CREATION_DATE  = 
ORIGINATOR     = 

OBJECT_NAME    = UNKNOWN
OBJECT_ID      = 
CENTER_NAME    = EARTH
REF_FRAME      = TEME
TIME_SYSTEM    = UTC
MEAN_ELEMENT_THEORY = SGP/SGP4

EPOCH          = 2025-11-02T08:27:48.111552
MEAN_MOTION    = 13.88686156
ECCENTRICITY   = .0158545
INCLINATION    = 99.4680
RA_OF_ASC_NODE = 353.8711
ARG_OF_PERICENTER = 331.9698
MEAN_ANOMALY   = 27.2987

EPHEMERIS_TYPE = 0
CLASSIFICATION_TYPE = U
NORAD_CAT_ID   = 81405
ELEMENT_SET_NO = 999
REV_AT_EPOCH   = 55619
BSTAR          = .1262E-2
MEAN_MOTION_DOT = .1634E-4
MEAN_MOTION_DDOT = 0

